     2.100          NAVIGATION                              RINEX VERSION / TYPE
fic2rin                                 05/31/2009 01:48:25 PGM / RUN BY / DATE
                                                            END OF HEADER
 7 09  5 30  4  0  0.0  .179959461093D-04 -.682121026330D-12  .000000000000D+00
     .104000000000D+03  .125000000000D+01  .456769026263D-08  .736498258452D+00
     .117346644402D-06  .259473547339D-02  .376068055630D-05  .515366827202D+04
     .532800000000D+06  .104308128357D-06  .274372487166D+01 -.931322574615D-08
     .967608454719D+00  .311906250000D+03  .287625729868D+01 -.832177520677D-08
     .278225874939D-09  .100000000000D+01  .153300000000D+04  .000000000000D+00
     .240000000000D+01  .000000000000D+00 -.107102096081D-07  .104000000000D+03
     .525606000000D+06  .400000000000D+01
 8 09  5 30  4  0  0.0 -.205405987799D-03 -.170530256582D-11  .000000000000D+00
     .910000000000D+02 -.540625000000D+01  .418946022212D-08  .890937591127D-02
    -.208616256714D-06  .105840297183D-01  .388920307159D-05  .515364556885D+04
     .532800000000D+06  .121071934700D-06  .280412159378D+01 -.651925802231D-07
     .988838264831D+00  .316906250000D+03  .299093521870D+01 -.829177395710D-08
     .281797452281D-09  .100000000000D+01  .153300000000D+04  .000000000000D+00
     .340000000000D+01  .000000000000D+00 -.372529029846D-08  .910000000000D+02
     .525606000000D+06  .400000000000D+01
10 09  5 30  4  0  0.0 -.167428515851D-04 -.568434188608D-12  .000000000000D+00
     .970000000000D+02  .415625000000D+01  .448732977244D-08 -.291392882314D+01
     .182539224625D-06  .858994608279D-02  .820308923721D-05  .515360856819D+04
     .532800000000D+06  .428408384323D-07  .672567905987D+00 -.763684511185D-07
     .958510381393D+00  .219937500000D+03  .627057999163D+00 -.797711799327D-08
    -.438946855327D-09  .100000000000D+01  .153300000000D+04  .000000000000D+00
     .340000000000D+01  .000000000000D+00 -.279396772385D-08  .970000000000D+02
     .525606000000D+06  .400000000000D+01
11 09  5 30  4  0  0.0 -.446662306786D-05 -.147792889038D-11  .000000000000D+00
     .800000000000D+02  .418437500000D+02  .660420366302D-08  .555526201473D+00
     .244751572609D-05  .936015159823D-02  .609084963799D-05  .515368091393D+04
     .532800000000D+06 -.298023223877D-07 -.611668768059D+00  .152736902237D-06
     .889412648247D+00  .220500000000D+03  .696596544636D+00 -.921966975054D-08
    -.446447167745D-10  .100000000000D+01  .153300000000D+04  .000000000000D+00
     .240000000000D+01  .000000000000D+00 -.116415321827D-07  .800000000000D+02
     .525606000000D+06  .400000000000D+01
12 09  5 30  4  0  0.0 -.274027697742D-03  .557065504836D-11  .000000000000D+00
     .640000000000D+02 -.949375000000D+02  .465876548485D-08  .757848839766D+00
    -.490434467793D-05  .334889173973D-02  .710040330887D-05  .515365198326D+04
     .532800000000D+06  .763684511185D-07 -.248779053554D+01 -.447034835815D-07
     .967133824114D+00  .249562500000D+03 -.696662373024D+00 -.819569852660D-08
    -.921466954226D-10  .100000000000D+01  .153300000000D+04  .000000000000D+00
     .240000000000D+01  .000000000000D+00 -.116415321827D-07  .640000000000D+02
     .525606000000D+06  .400000000000D+01
13 09  5 30  4  0  0.0  .298277474940D-03  .795807864051D-12  .000000000000D+00
     .310000000000D+02  .625937500000D+02  .348764527442D-08  .306456133869D+01
     .323727726936D-05  .413999776356D-02  .835396349430D-05  .515370583534D+04
     .532800000000D+06 -.428408384323D-07  .175366932293D+01  .223517417908D-07
     .994683573455D+00  .236812500000D+03  .157612861053D+01 -.754960018544D-08
     .142505935944D-09  .100000000000D+01  .153300000000D+04  .000000000000D+00
     .240000000000D+01  .000000000000D+00 -.111758708954D-07  .310000000000D+02
     .525606000000D+06  .400000000000D+01
14 09  5 30  4  0  0.0 -.102782621980D-03  .591171556152D-11  .000000000000D+00
     .460000000000D+02  .463750000000D+02  .357979196985D-08  .290689865620D+01
     .251270830631D-05  .444727414288D-02  .916235148907D-05  .515360904884D+04
     .532800000000D+06  .465661287308D-07  .173413685621D+01 -.558793544769D-08
     .988189991703D+00  .217812500000D+03 -.215297861021D+01 -.759174479807D-08
     .204651381694D-09  .100000000000D+01  .153300000000D+04  .000000000000D+00
     .240000000000D+01  .000000000000D+00 -.931322574615D-08  .460000000000D+02
     .525606000000D+06  .400000000000D+01
15 09  5 30  4  0  0.0 -.296417158097D-03 -.352429196937D-11  .000000000000D+00
     .780000000000D+02  .641562500000D+02  .437839666351D-08  .308406431445D+01
     .333786010742D-05  .143653771374D-02  .940263271332D-05  .515362503052D+04
     .532800000000D+06  .391155481339D-07  .168155924689D+01  .558793544769D-08
     .956213899907D+00  .193125000000D+03 -.468476920116D+00 -.809140846821D-08
     .989326923723D-10  .100000000000D+01  .153300000000D+04  .000000000000D+00
     .340000000000D+01  .000000000000D+00 -.977888703346D-08  .780000000000D+02
     .525606000000D+06  .400000000000D+01
16 09  5 30  4  0  0.0  .466071069241D-04 -.341060513165D-11  .000000000000D+00
     .890000000000D+02 -.847812500000D+02  .451411660250D-08 -.170525542717D+01
    -.462681055069D-05  .536734657362D-02  .789016485214D-05  .515355758667D+04
     .532800000000D+06 -.745058059692D-07 -.247084194202D+01 -.160187482834D-06
     .968574027465D+00  .234593750000D+03 -.353395726248D+00 -.811176645906D-08
     .642883921553D-11  .100000000000D+01  .153300000000D+04  .000000000000D+00
     .240000000000D+01  .000000000000D+00 -.977888703346D-08  .890000000000D+02
     .525606000000D+06  .400000000000D+01
18 09  5 30  4  0  0.0 -.526057556272D-04  .318323145621D-11  .000000000000D+00
     .640000000000D+02 -.375000000000D+01  .483770150969D-08 -.152061951088D+01
    -.268220901489D-06  .104111129185D-01  .764429569244D-05  .515359556389D+04
     .532800000000D+06  .270083546638D-06  .677976533564D+00 -.230967998505D-06
     .942552489163D+00  .224312500000D+03 -.242214686462D+01 -.814926802115D-08
    -.460376319379D-09  .100000000000D+01  .153300000000D+04  .000000000000D+00
     .240000000000D+01  .000000000000D+00 -.107102096081D-07  .640000000000D+02
     .525606000000D+06  .400000000000D+01
19 09  5 30  4  0  0.0  .241571106017D-04 -.125055521494D-11  .000000000000D+00
     .140000000000D+02  .381250000000D+01  .473198282036D-08  .285258092631D+01
     .277534127235D-06  .562244222965D-02  .104568898678D-04  .515361145210D+04
     .532800000000D+06 -.121071934700D-06 -.137236964269D+01  .912696123123D-07
     .957064771098D+00  .177156250000D+03 -.358744009917D+00 -.794997400547D-08
     .208580116771D-09  .100000000000D+01  .153300000000D+04  .000000000000D+00
     .240000000000D+01  .000000000000D+00 -.144354999065D-07  .140000000000D+02
     .525606000000D+06  .400000000000D+01
20 09  5 30  4  0  0.0  .812923535705D-04 -.102318153949D-11  .000000000000D+00
     .550000000000D+02  .309375000000D+01  .491020452973D-08 -.137893880026D+01
     .689178705215D-07  .397056725342D-02  .781379640102D-05  .515360288811D+04
     .532800000000D+06  .167638063431D-07  .624146960420D+00  .158324837685D-06
     .942221948675D+00  .218468750000D+03  .136442270888D+01 -.830606026646D-08
    -.490020411317D-09  .100000000000D+01  .153300000000D+04  .000000000000D+00
     .240000000000D+01  .000000000000D+00 -.651925802231D-08  .550000000000D+02
     .525606000000D+06  .400000000000D+01
21 09  5 30  4  0  0.0  .112280249596D-04 -.216004991671D-11  .000000000000D+00
     .780000000000D+02  .327187500000D+02  .555130266261D-08 -.237118002905D+00
     .163726508617D-05  .152986639878D-01  .607781112194D-05  .515360570908D+04
     .532800000000D+06  .614672899246D-07 -.379980504102D+00  .176951289177D-06
     .934166341995D+00  .244968750000D+03 -.259943527486D+01 -.880679540981D-08
    -.104290058385D-09  .100000000000D+01  .153300000000D+04  .000000000000D+00
     .240000000000D+01  .000000000000D+00 -.121071934700D-07  .780000000000D+02
     .525606000000D+06  .400000000000D+01
22 09  5 30  4  0  0.0  .198604539037D-03 -.795807864051D-12  .000000000000D+00
     .310000000000D+02 -.509375000000D+01  .483841582515D-08 -.255548650789D+01
    -.279396772385D-06  .499921455048D-02  .776909291744D-05  .515365581894D+04
     .532800000000D+06 -.447034835815D-07  .683656078940D+00 -.130385160446D-06
     .940213267062D+00  .220656250000D+03 -.188532333787D+01 -.810855203945D-08
    -.432160858377D-09  .100000000000D+01  .153300000000D+04  .000000000000D+00
     .240000000000D+01  .000000000000D+00 -.176951289177D-07  .310000000000D+02
     .525606000000D+06  .400000000000D+01
23 09  5 30  4  0  0.0  .390154309571D-03  .113686837722D-12  .000000000000D+00
     .250000000000D+02  .626875000000D+02  .406159775328D-08  .231171599035D+01
     .327639281750D-05  .612845818978D-02  .836327672005D-05  .515361125755D+04
     .532800000000D+06 -.409781932831D-07  .170156683284D+01  .577419996262D-07
     .970184412075D+00  .223531250000D+03  .288497617632D+01 -.787818530090D-08
     .342871424828D-10  .100000000000D+01  .153300000000D+04  .000000000000D+00
     .240000000000D+01  .000000000000D+00 -.200234353542D-07  .250000000000D+02
     .525606000000D+06  .400000000000D+01
24 09  5 30  4  0  0.0  .192774925381D-03  .295585778076D-11  .000000000000D+00
     .790000000000D+02  .317500000000D+02  .511985611970D-08 -.159716301428D+01
     .164285302162D-05  .670536421239D-02  .636279582977D-05  .515367202950D+04
     .532800000000D+06 -.128522515297D-06 -.347819316596D+00 -.137835741043D-06
     .950820355016D+00  .249312500000D+03 -.650344512637D+00 -.842713673836D-08
    -.357157734196D-10  .100000000000D+01  .153300000000D+04  .000000000000D+00
     .340000000000D+01  .000000000000D+00 -.139698386192D-08  .790000000000D+02
     .525606000000D+06  .400000000000D+01
